ONEWEB-0501             
1 54119U 22138G   24091.56569498 -.00000181  00000+0 -48549-3 0  9998
2 54119  87.9095 105.7223 0001475  77.1172 283.0125 13.19725829 70287
ONEWEB-0504             
1 54122U 22138K   24091.52777353  .00000075  00000+0  15472-3 0  9998
2 54122  87.9096 105.7313 0001938  78.7532 281.3819 13.19722900 70304
ONEWEB-0505             
1 54123U 22138L   24091.52462811  .00000071  00000+0  14542-3 0  9992
2 54123  87.9095 105.7280 0001497  69.1586 290.9707 13.19723658 70280
ONEWEB-0506             
1 54124U 22138M   24091.57517240  .00000046  00000+0  83637-4 0  9999
2 54124  87.9093 105.7146 0001706  84.4518 275.6810 13.19724129 70287
ONEWEB-0507             
1 54125U 22138N   24091.59570504  .00000106  00000+0  23171-3 0  9997
2 54125  87.9103 105.7253 0001605  87.8352 272.2964 13.19723643 70339
